SHIJIAN-6 02B (SJ-6 02B)
1 29506U 06046B   26065.83145100  .00002640  00000+0  21124-3 0  9993
2 29506  97.7053  95.5886 0014136  52.3971 307.8533 15.00981460 55382
FGRST (GLAST)           
1 33053U 08029A   26065.60428909  .00005446  00000+0  20909-3 0  9991
2 33053  25.5813 196.4452 0008178 191.7998 168.2349 15.23303487980173
SDO                     
1 36395U 10005A   26065.56154234 -.00000066  00000+0  00000+0 0  9992
2 36395  34.4350  87.8954 0000235  54.9241 121.7196  1.00275573 59037
CRYOSAT 2               
1 36508U 10013A   26065.80417661  .00000307  00000+0  75385-4 0  9990
2 36508  92.0224 252.4942 0002111  87.8735 272.2714 14.51907176843229
X-SAT                   
1 37389U 11015C   26065.86480584  .00000096  00000+0  58323-4 0  9999
2 37389  98.3425  47.8141 0012889 285.6264  74.3494 14.25170773773105
GCOM-W1 (SHIZUKU)       
1 38337U 12025A   26065.84480023  .00000927  00000+0  21585-3 0  9993
2 38337  98.2053   7.9483 0001467  74.8371 304.9547 14.57093623734132
NUSTAR                  
1 38358U 12031A   26065.91668981  .00008787  00000+0  50468-3 0  9996
2 38358   6.0268  80.6584 0007637  18.7352 161.7387 15.07676765  1308
NEOSSAT                 
1 39089U 13009D   26065.49026570  .00000320  00000+0  12549-3 0  9992
2 39089  98.4138 247.9729 0010833 187.0086 173.0951 14.35783762682007
BRITE-AUSTRIA           
1 39091U 13009F   26065.40048329  .00000341  00000+0  13070-3 0  9995
2 39091  98.3951 247.3903 0010174 180.8096 179.3076 14.36493935682299
IRIS                    
1 39197U 13033A   26065.05765335  .00001756  00000+0  20829-3 0  9994
2 39197  97.9396 264.6230 0023407 297.8722  62.0122 14.85631155685067
HISAKI (SPRINT-A)       
1 39253U 13049A   26065.53523313  .00000123  00000+0  76286-4 0  9991
2 39253  29.7222  21.8933 0136701 264.5372  93.9593 13.55530361617487
CASSIOPE                
1 39265U 13055A   26065.78651083  .00041302 -53820-6  49670-3 0  9990
2 39265  80.9187 190.4317 0316615  45.8958 316.7856 15.18494428652090
STSAT-3                 
1 39422U 13066G   26065.88130904  .00004231  00000+0  32647-3 0  9992
2 39422  97.6063  37.5574 0011714  24.1854 335.9919 15.02055419668845
SWARM B                 
1 39451U 13067A   26065.85274815  .00006421  00000+0  23522-3 0  9997
2 39451  87.7493  13.3480 0003703  88.4924 271.6749 15.27825745667617
SWARM A                 
1 39452U 13067B   26065.81515445  .00013496  00000+0  25163-3 0  9994
2 39452  87.3285  94.2233 0003074  93.8417 266.3194 15.48670677690396
SWARM C                 
1 39453U 13067C   26065.81504631  .00013628  00000+0  25410-3 0  9992
2 39453  87.3282  92.8048 0003078  93.9848 266.1764 15.48670350690350
BRITE-CA1 (TORONTO)     
1 40020U 14033L   26065.77492995  .00001906  00000+0  29466-3 0  9993
2 40020  97.9562 196.7031 0077781 244.3708 114.9449 14.72453630627148
