[{"OBJECT_NAME":"SHIJIAN-6 02B (SJ-6 02B)","OBJECT_ID":"2006-046B","EPOCH":"2026-03-06T19:57:17.366400","MEAN_MOTION":15.0098146,"ECCENTRICITY":0.0014136,"INCLINATION":97.7053,"RA_OF_ASC_NODE":95.5886,"ARG_OF_PERICENTER":52.3971,"MEAN_ANOMALY":307.8533,"EPHEMERIS_TYPE":0,"CLASSIFICATION_TYPE":"U","NORAD_CAT_ID":29506,"ELEMENT_SET_NO":999,"REV_AT_EPOCH":5538,"BSTAR":0.00021124,"MEAN_MOTION_DOT":2.64e-5,"MEAN_MOTION_DDOT":0},{"OBJECT_NAME":"FGRST (GLAST)","OBJECT_ID":"2008-029A","EPOCH":"2026-03-06T14:30:10.577376","MEAN_MOTION":15.23303487,"ECCENTRICITY":0.00081787,"INCLINATION":25.5813,"RA_OF_ASC_NODE":196.4452,"ARG_OF_PERICENTER":191.7998,"MEAN_ANOMALY":168.2349,"EPHEMERIS_TYPE":0,"CLASSIFICATION_TYPE":"U","NORAD_CAT_ID":33053,"ELEMENT_SET_NO":999,"REV_AT_EPOCH":98017,"BSTAR":0.00020908899,"MEAN_MOTION_DOT":5.446e-5,"MEAN_MOTION_DDOT":0},{"OBJECT_NAME":"SDO","OBJECT_ID":"2010-005A","EPOCH":"2026-03-06T13:28:37.258176","MEAN_MOTION":1.00275573,"ECCENTRICITY":2.353e-5,"INCLINATION":34.435,"RA_OF_ASC_NODE":87.8954,"ARG_OF_PERICENTER":54.9241,"MEAN_ANOMALY":121.7196,"EPHEMERIS_TYPE":0,"CLASSIFICATION_TYPE":"U","NORAD_CAT_ID":36395,"ELEMENT_SET_NO":999,"REV_AT_EPOCH":5903,"BSTAR":0,"MEAN_MOTION_DOT":-6.6e-7,"MEAN_MOTION_DDOT":0},{"OBJECT_NAME":"CRYOSAT 2","OBJECT_ID":"2010-013A","EPOCH":"2026-03-06T19:18:00.859104","MEAN_MOTION":14.51907176,"ECCENTRICITY":0.0002111,"INCLINATION":92.0224,"RA_OF_ASC_NODE":252.4942,"ARG_OF_PERICENTER":87.8735,"MEAN_ANOMALY":272.2714,"EPHEMERIS_TYPE":0,"CLASSIFICATION_TYPE":"U","NORAD_CAT_ID":36508,"ELEMENT_SET_NO":999,"REV_AT_EPOCH":84322,"BSTAR":7.5385e-5,"MEAN_MOTION_DOT":3.07e-6,"MEAN_MOTION_DDOT":0},{"OBJECT_NAME":"X-SAT","OBJECT_ID":"2011-015C","EPOCH":"2026-03-06T20:45:19.224576","MEAN_MOTION":14.25170773,"ECCENTRICITY":0.0012889,"INCLINATION":98.3425,"RA_OF_ASC_NODE":47.8141,"ARG_OF_PERICENTER":285.6264,"MEAN_ANOMALY":74.3494,"EPHEMERIS_TYPE":0,"CLASSIFICATION_TYPE":"U","NORAD_CAT_ID":37389,"ELEMENT_SET_NO":999,"REV_AT_EPOCH":77310,"BSTAR":5.8323e-5,"MEAN_MOTION_DOT":9.6e-7,"MEAN_MOTION_DDOT":0},{"OBJECT_NAME":"GCOM-W1 (SHIZUKU)","OBJECT_ID":"2012-025A","EPOCH":"2026-03-06T20:16:30.739872","MEAN_MOTION":14.57093623,"ECCENTRICITY":0.0001467,"INCLINATION":98.2053,"RA_OF_ASC_NODE":7.9483,"ARG_OF_PERICENTER":74.8371,"MEAN_ANOMALY":304.9547,"EPHEMERIS_TYPE":0,"CLASSIFICATION_TYPE":"U","NORAD_CAT_ID":38337,"ELEMENT_SET_NO":999,"REV_AT_EPOCH":73413,"BSTAR":0.00021585,"MEAN_MOTION_DOT":9.27e-6,"MEAN_MOTION_DDOT":0},{"OBJECT_NAME":"NUSTAR","OBJECT_ID":"2012-031A","EPOCH":"2026-03-06T22:00:01.999584","MEAN_MOTION":15.07676765,"ECCENTRICITY":0.0007637,"INCLINATION":6.0268,"RA_OF_ASC_NODE":80.6584,"ARG_OF_PERICENTER":18.7352,"MEAN_ANOMALY":161.7387,"EPHEMERIS_TYPE":0,"CLASSIFICATION_TYPE":"U","NORAD_CAT_ID":38358,"ELEMENT_SET_NO":999,"REV_AT_EPOCH":130,"BSTAR":0.00050468,"MEAN_MOTION_DOT":8.787e-5,"MEAN_MOTION_DDOT":0},{"OBJECT_NAME":"NEOSSAT","OBJECT_ID":"2013-009D","EPOCH":"2026-03-06T11:45:58.956480","MEAN_MOTION":14.35783762,"ECCENTRICITY":0.00108334,"INCLINATION":98.4138,"RA_OF_ASC_NODE":247.9729,"ARG_OF_PERICENTER":187.0086,"MEAN_ANOMALY":173.0951,"EPHEMERIS_TYPE":0,"CLASSIFICATION_TYPE":"U","NORAD_CAT_ID":39089,"ELEMENT_SET_NO":999,"REV_AT_EPOCH":68200,"BSTAR":0.0001254876,"MEAN_MOTION_DOT":3.2e-6,"MEAN_MOTION_DDOT":0},{"OBJECT_NAME":"BRITE-AUSTRIA","OBJECT_ID":"2013-009F","EPOCH":"2026-03-06T09:36:41.756256","MEAN_MOTION":14.36493935,"ECCENTRICITY":0.00101749,"INCLINATION":98.3951,"RA_OF_ASC_NODE":247.3903,"ARG_OF_PERICENTER":180.8096,"MEAN_ANOMALY":179.3076,"EPHEMERIS_TYPE":0,"CLASSIFICATION_TYPE":"U","NORAD_CAT_ID":39091,"ELEMENT_SET_NO":999,"REV_AT_EPOCH":68229,"BSTAR":0.00013069995,"MEAN_MOTION_DOT":3.41e-6,"MEAN_MOTION_DDOT":0},{"OBJECT_NAME":"IRIS","OBJECT_ID":"2013-033A","EPOCH":"2026-03-06T01:23:01.249440","MEAN_MOTION":14.85631155,"ECCENTRICITY":0.00234074,"INCLINATION":97.9396,"RA_OF_ASC_NODE":264.623,"ARG_OF_PERICENTER":297.8722,"MEAN_ANOMALY":62.0122,"EPHEMERIS_TYPE":0,"CLASSIFICATION_TYPE":"U","NORAD_CAT_ID":39197,"ELEMENT_SET_NO":999,"REV_AT_EPOCH":68506,"BSTAR":0.00020828711,"MEAN_MOTION_DOT":1.756e-5,"MEAN_MOTION_DDOT":0},{"OBJECT_NAME":"HISAKI (SPRINT-A)","OBJECT_ID":"2013-049A","EPOCH":"2026-03-06T12:50:44.142432","MEAN_MOTION":13.55530361,"ECCENTRICITY":0.01367013,"INCLINATION":29.7222,"RA_OF_ASC_NODE":21.8933,"ARG_OF_PERICENTER":264.5372,"MEAN_ANOMALY":93.9593,"EPHEMERIS_TYPE":0,"CLASSIFICATION_TYPE":"U","NORAD_CAT_ID":39253,"ELEMENT_SET_NO":999,"REV_AT_EPOCH":61748,"BSTAR":7.6285831e-5,"MEAN_MOTION_DOT":1.23e-6,"MEAN_MOTION_DDOT":0},{"OBJECT_NAME":"CASSIOPE","OBJECT_ID":"2013-055A","EPOCH":"2026-03-06T18:52:34.535712","MEAN_MOTION":15.18494428,"ECCENTRICITY":0.0316615,"INCLINATION":80.9187,"RA_OF_ASC_NODE":190.4317,"ARG_OF_PERICENTER":45.8958,"MEAN_ANOMALY":316.7856,"EPHEMERIS_TYPE":0,"CLASSIFICATION_TYPE":"U","NORAD_CAT_ID":39265,"ELEMENT_SET_NO":999,"REV_AT_EPOCH":65209,"BSTAR":0.0004967,"MEAN_MOTION_DOT":0.00041302,"MEAN_MOTION_DDOT":-5.382e-7},{"OBJECT_NAME":"STSAT-3","OBJECT_ID":"2013-066G","EPOCH":"2026-03-06T21:09:05.101056","MEAN_MOTION":15.02055419,"ECCENTRICITY":0.0011714,"INCLINATION":97.6063,"RA_OF_ASC_NODE":37.5574,"ARG_OF_PERICENTER":24.1854,"MEAN_ANOMALY":335.9919,"EPHEMERIS_TYPE":0,"CLASSIFICATION_TYPE":"U","NORAD_CAT_ID":39422,"ELEMENT_SET_NO":999,"REV_AT_EPOCH":66884,"BSTAR":0.00032647,"MEAN_MOTION_DOT":4.231e-5,"MEAN_MOTION_DDOT":0},{"OBJECT_NAME":"SWARM B","OBJECT_ID":"2013-067A","EPOCH":"2026-03-06T20:27:57.440160","MEAN_MOTION":15.27825745,"ECCENTRICITY":0.0003703,"INCLINATION":87.7493,"RA_OF_ASC_NODE":13.348,"ARG_OF_PERICENTER":88.4924,"MEAN_ANOMALY":271.6749,"EPHEMERIS_TYPE":0,"CLASSIFICATION_TYPE":"U","NORAD_CAT_ID":39451,"ELEMENT_SET_NO":999,"REV_AT_EPOCH":66761,"BSTAR":0.00023522,"MEAN_MOTION_DOT":6.421e-5,"MEAN_MOTION_DDOT":0},{"OBJECT_NAME":"SWARM A","OBJECT_ID":"2013-067B","EPOCH":"2026-03-06T19:33:49.344480","MEAN_MOTION":15.48670677,"ECCENTRICITY":0.0003074,"INCLINATION":87.3285,"RA_OF_ASC_NODE":94.2233,"ARG_OF_PERICENTER":93.8417,"MEAN_ANOMALY":266.3194,"EPHEMERIS_TYPE":0,"CLASSIFICATION_TYPE":"U","NORAD_CAT_ID":39452,"ELEMENT_SET_NO":999,"REV_AT_EPOCH":69039,"BSTAR":0.00025163,"MEAN_MOTION_DOT":0.00013496,"MEAN_MOTION_DDOT":0},{"OBJECT_NAME":"SWARM C","OBJECT_ID":"2013-067C","EPOCH":"2026-03-06T19:33:40.001184","MEAN_MOTION":15.4867035,"ECCENTRICITY":0.0003078,"INCLINATION":87.3282,"RA_OF_ASC_NODE":92.8048,"ARG_OF_PERICENTER":93.9848,"MEAN_ANOMALY":266.1764,"EPHEMERIS_TYPE":0,"CLASSIFICATION_TYPE":"U","NORAD_CAT_ID":39453,"ELEMENT_SET_NO":999,"REV_AT_EPOCH":69035,"BSTAR":0.0002541,"MEAN_MOTION_DOT":0.00013628,"MEAN_MOTION_DDOT":0},{"OBJECT_NAME":"BRITE-CA1 (TORONTO)","OBJECT_ID":"2014-033L","EPOCH":"2026-03-06T18:35:53.947680","MEAN_MOTION":14.7245363,"ECCENTRICITY":0.0077781,"INCLINATION":97.9562,"RA_OF_ASC_NODE":196.7031,"ARG_OF_PERICENTER":244.3708,"MEAN_ANOMALY":114.9449,"EPHEMERIS_TYPE":0,"CLASSIFICATION_TYPE":"U","NORAD_CAT_ID":40020,"ELEMENT_SET_NO":999,"REV_AT_EPOCH":62714,"BSTAR":0.00029466,"MEAN_MOTION_DOT":1.906e-5,"MEAN_MOTION_DDOT":0}]
